NORAD_CAT_ID,OBJECT_NAME,OBJECT_TYPE,EPOCH,MEAN_MOTION,ECCENTRICITY,INCLINATION,RA_OF_ASC_NODE,ARG_OF_PERICENTER,MEAN_ANOMALY,BSTAR,MEAN_MOTION_DOT,MEAN_MOTION_DDOT,TLE_LINE0,TLE_LINE1,TLE_LINE2,SEMIMAJOR_AXIS,PERIOD,APOGEE,PERIGEE,DECAYED
53568.0,STARLINK-4583,PAYLOAD,2023-12-02 19:10:22,15.08851851,0.0001294,53.2144,170.5374,94.1001,266.0139,0.00028294,4.219e-05,0.0,0 STARLINK-4583,1 53568U 22101AT  23336.79887118  .00004219  00000-0  28294-3 0  9993,2 53568  53.2144 170.5374 0001294  94.1001 266.0139 15.08851851 71463,6917.844,95.437,540.604,538.814,0.0
53568.0,STARLINK-4583,PAYLOAD,2023-12-02 20:45:45,15.08852065,0.0001292,53.2145,170.2402,89.8227,270.2913,0.00026233,3.891e-05,0.0,0 STARLINK-4583,1 53568U 22101AT  23336.86511057  .00003891  00000-0  26233-3 0  9993,2 53568  53.2145 170.2402 0001292  89.8227 270.2913 15.08852065 72165,6917.844,95.437,540.602,538.815,0.0
53568.0,STARLINK-4583,PAYLOAD,2023-12-03 12:39:37,15.08837618,0.0001406,53.2145,167.2662,87.3709,272.7444,-5.1931e-05,-1.114e-05,0.0,0 STARLINK-4583,1 53568U 22101AT  23337.52751614 -.00001114  00000-0 -51931-4 0  9994,2 53568  53.2145 167.2662 0001406  87.3709 272.7444 15.08837618 71571,6917.888,95.438,540.725,538.78,0.0
53568.0,STARLINK-4583,PAYLOAD,2023-12-03 19:01:10,15.08832665,0.0001455,53.2149,166.0767,82.5039,277.6118,-0.00011215,-2.072e-05,0.0,0 STARLINK-4583,1 53568U 22101AT  23337.79248022 -.00002072  00000-0 -11215-3 0  9991,2 53568  53.2149 166.0767 0001455  82.5039 277.6118 15.08832665 71619,6917.903,95.438,540.774,538.761,0.0
53568.0,STARLINK-4583,PAYLOAD,2023-12-05 21:53:31,15.08840068,0.0001455,53.2151,156.5597,97.3931,262.7227,0.00023302,3.423e-05,0.0,0 STARLINK-4583,1 53568U 22101AT  23339.91216699  .00003423  00000-0  23302-3 0  9991,2 53568  53.2151 156.5597 0001455  97.3931 262.7227 15.08840068 72626,6917.88,95.438,540.752,538.739,0.0
53568.0,STARLINK-4583,PAYLOAD,2023-12-06 13:47:22,15.08845914,0.0001463,53.2153,153.5875,83.1508,276.965,0.00018699,2.69e-05,0.0,0 STARLINK-4583,1 53568U 22101AT  23340.57456372  .00002690  00000-0  18699-3 0  9997,2 53568  53.2153 153.5875 0001463  83.1508 276.9650 15.08845914 72729,6917.862,95.437,540.739,538.715,0.0
53568.0,STARLINK-4583,PAYLOAD,2023-12-06 21:44:17,15.08848795,0.0001477,53.2153,152.1001,86.5725,273.5436,0.00019264,2.78e-05,0.0,0 STARLINK-4583,1 53568U 22101AT  23340.90576118  .00002780  00000-0  19264-3 0  9994,2 53568  53.2153 152.1001 0001477  86.5725 273.5436 15.08848795 72778,6917.854,95.437,540.74,538.697,0.0
53568.0,STARLINK-4583,PAYLOAD,2023-12-06 23:19:40,15.08850233,0.000147,53.2153,151.8029,85.5248,274.5912,0.00021104,3.073e-05,0.0,0 STARLINK-4583,1 53568U 22101AT  23340.97200012  .00003073  00000-0  21104-3 0  9990,2 53568  53.2153 151.8029 0001470  85.5248 274.5912 15.08850233 72091,6917.849,95.437,540.731,538.697,0.0
53568.0,STARLINK-4583,PAYLOAD,2023-12-07 12:02:46,15.08840563,0.0001486,53.2153,149.424,87.2011,272.9151,9.4766e-06,-1.37e-06,0.0,0 STARLINK-4583,1 53568U 22101AT  23341.50192285 -.00000137  00000-0  94766-5 0  9997,2 53568  53.2153 149.4240 0001486  87.2011 272.9151 15.08840563 72174,6917.879,95.438,540.772,538.716,0.0
53568.0,STARLINK-4583,PAYLOAD,2023-12-07 13:38:09,15.08841729,0.0001489,53.2154,149.1265,88.2672,271.8491,1.8243e-05,2e-08,0.0,0 STARLINK-4583,1 53568U 22101AT  23341.56816202  .00000002  00000-0  18243-4 0  9990,2 53568  53.2154 149.1265 0001489  88.2672 271.8491 15.08841729 72873,6917.875,95.437,540.77,538.71,0.0
53568.0,STARLINK-4583,PAYLOAD,2023-12-08 13:28:56,15.08837256,0.0001449,53.2164,144.6659,91.4892,268.6266,-8.3237e-06,-4.2e-06,0.0,0 STARLINK-4583,1 53568U 22101AT  23342.56176604 -.00000420  00000-0 -83237-5 0  9998,2 53568  53.2164 144.6659 0001449  91.4892 268.6266 15.08837256 73029,6917.889,95.438,540.756,538.751,0.0
53568.0,STARLINK-4583,PAYLOAD,2023-12-08 19:50:28,15.08840062,0.0001449,53.2164,143.4765,90.4438,269.672,1.0078e-05,-1.28e-06,0.0,0 STARLINK-4583,1 53568U 22101AT  23342.82672371 -.00000128  00000-0  10078-4 0  9995,2 53568  53.2164 143.4765 0001449  90.4438 269.6720 15.08840062 72371,6917.88,95.438,540.748,538.743,0.0
53568.0,STARLINK-4583,PAYLOAD,2023-12-08 21:25:52,15.0884029,0.000145,53.2164,143.1791,90.2735,269.8423,4.9352e-06,-2.09e-06,0.0,0 STARLINK-4583,1 53568U 22101AT  23342.89296349 -.00000209  00000-0  49352-5 0  9997,2 53568  53.2164 143.1791 0001450  90.2735 269.8423 15.08840290 73070,6917.88,95.438,540.748,538.741,0.0
53568.0,STARLINK-4583,PAYLOAD,2023-12-09 19:41:15,15.08840209,0.0001424,53.2166,139.0159,91.3372,268.7783,4.3846e-05,4.1e-06,0.0,0 STARLINK-4583,1 53568U 22101AT  23343.82032258  .00000410  00000-0  43846-4 0  9992,2 53568  53.2166 139.0159 0001424  91.3372 268.7783 15.08840209 73217,6917.88,95.438,540.73,538.76,0.0
53568.0,STARLINK-4583,PAYLOAD,2023-12-10 09:59:44,15.08837256,0.0001401,53.2167,136.3396,88.8406,271.2747,3.7336e-05,3.06e-06,0.0,0 STARLINK-4583,1 53568U 22101AT  23344.41648537  .00000306  00000-0  37336-4 0  9992,2 53568  53.2167 136.3396 0001401  88.8406 271.2747 15.08837256 72615,6917.889,95.438,540.723,538.785,0.0
53568.0,STARLINK-4583,PAYLOAD,2023-12-10 14:45:53,15.0883766,0.0001364,53.2167,135.4479,87.5315,272.5833,4.2869e-05,3.94e-06,0.0,0 STARLINK-4583,1 53568U 22101AT  23344.61520548  .00000394  00000-0  42869-4 0  9999,2 53568  53.2167 135.4479 0001364  87.5315 272.5833 15.08837660 73339,6917.888,95.438,540.696,538.809,0.0
53568.0,STARLINK-4583,PAYLOAD,2023-12-10 17:56:39,15.08840235,0.0001315,53.217,134.8532,86.3118,273.8025,6.0346e-05,6.73e-06,0.0,0 STARLINK-4583,1 53568U 22101AT  23344.74768340  .00000673  00000-0  60346-4 0  9997,2 53568  53.2170 134.8532 0001315  86.3118 273.8025 15.08840235 73351,6917.88,95.438,540.654,538.835,0.0
53568.0,STARLINK-4583,PAYLOAD,2023-12-11 14:36:40,15.08839219,0.000146,53.2176,130.9885,73.1108,287.0045,7.8262e-05,9.58e-06,0.0,0 STARLINK-4583,1 53568U 22101AT  23345.60880417  .00000958  00000-0  78262-4 0  9995,2 53568  53.2176 130.9885 0001460  73.1108 287.0045 15.08839219 73482,6917.883,95.438,540.758,538.738,0.0
53568.0,STARLINK-4583,PAYLOAD,2023-12-11 16:12:03,15.08841377,0.0001535,53.2173,130.6905,76.6852,283.4311,8.1629e-05,1.011e-05,0.0,0 STARLINK-4583,1 53568U 22101AT  23345.67504321  .00001011  00000-0  81629-4 0  9991,2 53568  53.2173 130.6905 0001535  76.6852 283.4311 15.08841377 72805,6917.876,95.437,540.803,538.679,0.0
53568.0,STARLINK-4583,PAYLOAD,2023-12-12 14:27:28,15.08837304,0.0001308,53.2172,126.5254,112.2468,247.8663,-2.4893e-05,-6.84e-06,0.0,0 STARLINK-4583,1 53568U 22101AT  23346.60240798 -.00000684  00000-0 -24893-4 0  9997,2 53568  53.2172 126.5254 0001308 112.2468 247.8663 15.08837304 73634,6917.889,95.438,540.658,538.849,0.0
53568.0,STARLINK-4583,PAYLOAD,2023-12-12 16:02:52,15.0882219,0.0001363,53.2173,126.2298,79.6571,280.4575,-0.00012046,-2.204e-05,0.0,0 STARLINK-4583,1 53568U 22101AT  23346.66866156 -.00002204  00000-0 -12046-3 0  9991,2 53568  53.2173 126.2298 0001363  79.6571 280.4575 15.08822190 72958,6917.935,95.439,540.743,538.857,0.0
53568.0,STARLINK-4583,PAYLOAD,2023-12-13 14:18:16,15.08820845,0.0001072,53.2174,122.0675,87.9336,272.1779,6.4759e-05,7.43e-06,0.0,0 STARLINK-4583,1 53568U 22101AT  23347.59602257  .00000743  00000-0  64759-4 0  9997,2 53568  53.2174 122.0675 0001072  87.9336 272.1779 15.08820845 73781,6917.939,95.439,540.546,539.062,0.0
53568.0,STARLINK-4583,PAYLOAD,2023-12-13 15:53:39,15.0883547,0.0001391,53.2181,121.7686,94.7438,265.3713,-6.583e-05,-1.335e-05,0.0,0 STARLINK-4583,1 53568U 22101AT  23347.66225908 -.00001335  00000-0 -65830-4 0  9990,2 53568  53.2181 121.7686 0001391  94.7438 265.3713 15.08835470 73108,6917.894,95.438,540.722,538.797,0.0
53568.0,STARLINK-4583,PAYLOAD,2023-12-14 14:09:02,15.08835857,0.0001579,53.2179,117.6092,99.6641,260.4529,0.0002578,3.817e-05,0.0,0 STARLINK-4583,1 53568U 22101AT  23348.58961161  .00003817  00000-0  25780-3 0  9994,2 53568  53.2179 117.6092 0001579  99.6641 260.4529 15.08835857 73939,6917.893,95.438,540.85,538.666,0.0
53568.0,STARLINK-4583,PAYLOAD,2023-12-15 13:59:49,15.08844766,0.0001379,53.2174,113.1494,108.9349,251.1793,5.1986e-05,5.4e-06,0.0,0 STARLINK-4583,1 53568U 22101AT  23349.58321421  .00000540  00000-0  51986-4 0  9992,2 53568  53.2174 113.1494 0001379 108.9349 251.1793 15.08844766 74084,6917.866,95.437,540.685,538.777,0.0
53568.0,STARLINK-4583,PAYLOAD,2023-12-16 12:15:13,15.08854559,0.0001547,53.2181,108.9841,115.8932,244.222,-0.00010515,-1.962e-05,0.0,0 STARLINK-4583,1 53568U 22101AT  23350.51057056 -.00001962  00000-0 -10515-3 0  9990,2 53568  53.2181 108.9841 0001547 115.8932 244.2220 15.08854559 73530,6917.836,95.437,540.771,538.631,0.0
53568.0,STARLINK-4583,PAYLOAD,2023-12-16 13:50:36,15.08851007,0.0001842,53.2183,108.6899,125.1188,234.9977,-2.9926e-05,-7.65e-06,0.0,0 STARLINK-4583,1 53568U 22101AT  23350.57680967 -.00000765  00000-0 -29926-4 0  9996,2 53568  53.2183 108.6899 0001842 125.1188 234.9977 15.08851007 74235,6917.847,95.437,540.986,538.437,0.0
53568.0,STARLINK-4583,PAYLOAD,2023-12-16 15:25:59,15.0882188,0.0001532,53.2174,108.3905,95.2124,264.9043,0.00042686,6.509e-05,0.0,0 STARLINK-4583,1 53568U 22101AT  23350.64305524  .00006509  00000-0  42686-3 0  9994,2 53568  53.2174 108.3905 0001532  95.2124 264.9043 15.08821880 73550,6917.936,95.439,540.861,538.741,0.0
53568.0,STARLINK-4583,PAYLOAD,2023-12-17 13:41:24,15.08823823,0.0001702,53.2175,104.2261,51.493,308.6215,0.00024656,3.636e-05,0.0,0 STARLINK-4583,1 53568U 22101AT  23351.57041956  .00003636  00000-0  24656-3 0  9998,2 53568  53.2175 104.2261 0001702  51.4930 308.6215 15.08823823 74387,6917.93,95.439,540.972,538.617,0.0
53568.0,STARLINK-4583,PAYLOAD,2023-12-17 15:16:47,15.08823053,0.0001611,53.2178,103.927,61.0792,299.0362,0.00029123,4.348e-05,0.0,0 STARLINK-4583,1 53568U 22101AT  23351.63665859  .00004348  00000-0  29123-3 0  9994,2 53568  53.2178 103.9270 0001611  61.0792 299.0362 15.08823053 74390,6917.932,95.439,540.912,538.683,0.0
